{
    "links": {
        "self": "http://www.neowsapp.com/rest/v1/neo/3760647?api_key=iIulBulltgU6a56xZRHN4H3l9WmuAYTsLGpBGhQ2"
    },
    "id": "3760647",
    "neo_reference_id": "3760647",
    "name": "(2016 TW18)",
    "designation": "2016 TW18",
    "nasa_jpl_url": "http://ssd.jpl.nasa.gov/sbdb.cgi?sstr=3760647",
    "absolute_magnitude_h": 22.6,
    "estimated_diameter": {
        "kilometers": {
            "estimated_diameter_min": 0.0802703167,
            "estimated_diameter_max": 0.1794898848
        },
        "meters": {
            "estimated_diameter_min": 80.2703167283,
            "estimated_diameter_max": 179.4898847799
        },
        "miles": {
            "estimated_diameter_min": 0.049877647,
            "estimated_diameter_max": 0.1115298092
        },
        "feet": {
            "estimated_diameter_min": 263.3540659348,
            "estimated_diameter_max": 588.8775935812
        }
    },
    "is_potentially_hazardous_asteroid": false,
    "close_approach_data": [
        {
            "close_approach_date": "1919-11-02",
            "close_approach_date_full": "1919-Nov-02 19:37",
            "epoch_date_close_approach": -1583036580000,
            "relative_velocity": {
                "kilometers_per_second": "15.9522021933",
                "kilometers_per_hour": "57427.9278959696",
                "miles_per_hour": "35683.4810862485"
            },
            "miss_distance": {
                "astronomical": "0.026490128",
                "lunar": "10.304659792",
                "kilometers": "3962866.72482736",
                "miles": "2462411.199283168"
            },
            "orbiting_body": "Earth"
        },
        {
            "close_approach_date": "2014-04-18",
            "close_approach_date_full": "2014-Apr-18 12:52",
            "epoch_date_close_approach": 1397825520000,
            "relative_velocity": {
                "kilometers_per_second": "29.6272833532",
                "kilometers_per_hour": "106658.2200716672",
                "miles_per_hour": "66273.2701328646"
            },
            "miss_distance": {
                "astronomical": "0.4636426936",
                "lunar": "180.3570078104",
                "kilometers": "69359959.403622632",
                "miles": "43098280.2795990416"
            },
            "orbiting_body": "Earth"
        },
        {
            "close_approach_date": "2016-10-29",
            "close_approach_date_full": "2016-Oct-29 21:33",
            "epoch_date_close_approach": 1477776780000,
            "relative_velocity": {
                "kilometers_per_second": "17.6601557041",
                "kilometers_per_hour": "63576.5605345976",
                "miles_per_hour": "39504.0022944004"
            },
            "miss_distance": {
                "astronomical": "0.0584968097",
                "lunar": "22.7552589733",
                "kilometers": "8750998.132915339",
                "miles": "5437618.0940921182"
            },
            "orbiting_body": "Earth"
        }
    ],
    "orbital_data": {
        "orbit_id": "9",
        "orbit_determination_date": "2019-12-04 07:16:16",
        "first_observation_date": "2016-10-05",
        "last_observation_date": "2016-10-31",
        "data_arc_in_days": 26,
        "observations_used": 55,
        "orbit_uncertainty": "7",
        "minimum_orbit_intersection": ".0213435",
        "jupiter_tisserand_invariant": "3.593",
        "epoch_osculation": "2459000.5",
        "eccentricity": ".6265521229667959",
        "semi_major_axis": "1.973882989219535",
        "inclination": "4.578080922590898",
        "ascending_node_longitude": "236.0893295430482",
        "orbital_period": "1012.932564511503",
        "perihelion_distance": ".7371424118359904",
        "perihelion_argument": "234.6282730709374",
        "aphelion_distance": "3.21062356660308",
        "perihelion_time": "2458748.158949269487",
        "mean_anomaly": "89.68294775555421",
        "mean_motion": ".3554037184830894",
        "equinox": "J2000",
        "orbit_class": {
            "orbit_class_type": "APO",
            "orbit_class_description": "Near-Earth asteroid orbits which cross the Earth’s orbit similar to that of 1862 Apollo",
            "orbit_class_range": "a (semi-major axis) > 1.0 AU; q (perihelion) < 1.017 AU"
        }
    },
    "is_sentry_object": false
}